<?xml version="1.0" encoding="UTF-8"?>
<ndm xmlns:xsi="http://www.w3.org/2001/XMLSchema-instance" xsi:noNamespaceSchemaLocation="https://sanaregistry.org/r/ndmxml_unqualified/ndmxml-2.0.0-master-2.0.xsd">
<omm id="CCSDS_OMM_VERS" version="2.0">
<header><CREATION_DATE/><ORIGINATOR/></header><body><segment><metadata><OBJECT_NAME>ORBCOMM FM33</OBJECT_NAME><OBJECT_ID>1999-065D</OBJECT_ID><CENTER_NAME>EARTH</CENTER_NAME><REF_FRAME>TEME</REF_FRAME><TIME_SYSTEM>UTC</TIME_SYSTEM><MEAN_ELEMENT_THEORY>SGP4</MEAN_ELEMENT_THEORY></metadata><data><meanElements><EPOCH>2024-10-05T20:34:16.042368</EPOCH><MEAN_MOTION>14.38513864</MEAN_MOTION><ECCENTRICITY>.0008614</ECCENTRICITY><INCLINATION>45.0265</INCLINATION><RA_OF_ASC_NODE>126.9385</RA_OF_ASC_NODE><ARG_OF_PERICENTER>217.3241</ARG_OF_PERICENTER><MEAN_ANOMALY>142.7010</MEAN_ANOMALY></meanElements><tleParameters><EPHEMERIS_TYPE>0</EPHEMERIS_TYPE><CLASSIFICATION_TYPE>U</CLASSIFICATION_TYPE><NORAD_CAT_ID>25983</NORAD_CAT_ID><ELEMENT_SET_NO>999</ELEMENT_SET_NO><REV_AT_EPOCH>29942</REV_AT_EPOCH><BSTAR>.23386E-2</BSTAR><MEAN_MOTION_DOT>.7081E-4</MEAN_MOTION_DOT><MEAN_MOTION_DDOT>0</MEAN_MOTION_DDOT></tleParameters></data></segment></body></omm>
<omm id="CCSDS_OMM_VERS" version="2.0">
<header><CREATION_DATE/><ORIGINATOR/></header><body><segment><metadata><OBJECT_NAME>ORBCOMM FM38</OBJECT_NAME><OBJECT_ID>2008-031A</OBJECT_ID><CENTER_NAME>EARTH</CENTER_NAME><REF_FRAME>TEME</REF_FRAME><TIME_SYSTEM>UTC</TIME_SYSTEM><MEAN_ELEMENT_THEORY>SGP4</MEAN_ELEMENT_THEORY></metadata><data><meanElements><EPOCH>2024-10-05T17:50:52.554912</EPOCH><MEAN_MOTION>14.78917929</MEAN_MOTION><ECCENTRICITY>.0004562</ECCENTRICITY><INCLINATION>48.4392</INCLINATION><RA_OF_ASC_NODE>85.9195</RA_OF_ASC_NODE><ARG_OF_PERICENTER>19.5603</ARG_OF_PERICENTER><MEAN_ANOMALY>340.5486</MEAN_ANOMALY></meanElements><tleParameters><EPHEMERIS_TYPE>0</EPHEMERIS_TYPE><CLASSIFICATION_TYPE>U</CLASSIFICATION_TYPE><NORAD_CAT_ID>33060</NORAD_CAT_ID><ELEMENT_SET_NO>999</ELEMENT_SET_NO><REV_AT_EPOCH>87705</REV_AT_EPOCH><BSTAR>.15297E-2</BSTAR><MEAN_MOTION_DOT>.11211E-3</MEAN_MOTION_DOT><MEAN_MOTION_DDOT>0</MEAN_MOTION_DDOT></tleParameters></data></segment></body></omm>
<omm id="CCSDS_OMM_VERS" version="2.0">
<header><CREATION_DATE/><ORIGINATOR/></header><body><segment><metadata><OBJECT_NAME>ORBCOMM FM41</OBJECT_NAME><OBJECT_ID>2008-031B</OBJECT_ID><CENTER_NAME>EARTH</CENTER_NAME><REF_FRAME>TEME</REF_FRAME><TIME_SYSTEM>UTC</TIME_SYSTEM><MEAN_ELEMENT_THEORY>SGP4</MEAN_ELEMENT_THEORY></metadata><data><meanElements><EPOCH>2024-10-05T20:15:48.405600</EPOCH><MEAN_MOTION>14.78612917</MEAN_MOTION><ECCENTRICITY>.0003873</ECCENTRICITY><INCLINATION>48.4424</INCLINATION><RA_OF_ASC_NODE>92.4217</RA_OF_ASC_NODE><ARG_OF_PERICENTER>2.2819</ARG_OF_PERICENTER><MEAN_ANOMALY>140.9081</MEAN_ANOMALY></meanElements><tleParameters><EPHEMERIS_TYPE>0</EPHEMERIS_TYPE><CLASSIFICATION_TYPE>U</CLASSIFICATION_TYPE><NORAD_CAT_ID>33061</NORAD_CAT_ID><ELEMENT_SET_NO>999</ELEMENT_SET_NO><REV_AT_EPOCH>87656</REV_AT_EPOCH><BSTAR>.1295E-2</BSTAR><MEAN_MOTION_DOT>.9387E-4</MEAN_MOTION_DOT><MEAN_MOTION_DDOT>0</MEAN_MOTION_DDOT></tleParameters></data></segment></body></omm>
<omm id="CCSDS_OMM_VERS" version="2.0">
<header><CREATION_DATE/><ORIGINATOR/></header><body><segment><metadata><OBJECT_NAME>ORBCOMM FM29</OBJECT_NAME><OBJECT_ID>2008-031C</OBJECT_ID><CENTER_NAME>EARTH</CENTER_NAME><REF_FRAME>TEME</REF_FRAME><TIME_SYSTEM>UTC</TIME_SYSTEM><MEAN_ELEMENT_THEORY>SGP4</MEAN_ELEMENT_THEORY></metadata><data><meanElements><EPOCH>2024-10-05T19:30:57.902688</EPOCH><MEAN_MOTION>14.78595526</MEAN_MOTION><ECCENTRICITY>.0005681</ECCENTRICITY><INCLINATION>48.4375</INCLINATION><RA_OF_ASC_NODE>100.5926</RA_OF_ASC_NODE><ARG_OF_PERICENTER>4.7596</ARG_OF_PERICENTER><MEAN_ANOMALY>9.1145</MEAN_ANOMALY></meanElements><tleParameters><EPHEMERIS_TYPE>0</EPHEMERIS_TYPE><CLASSIFICATION_TYPE>U</CLASSIFICATION_TYPE><NORAD_CAT_ID>33062</NORAD_CAT_ID><ELEMENT_SET_NO>999</ELEMENT_SET_NO><REV_AT_EPOCH>87647</REV_AT_EPOCH><BSTAR>.13857E-2</BSTAR><MEAN_MOTION_DOT>.10057E-3</MEAN_MOTION_DOT><MEAN_MOTION_DDOT>0</MEAN_MOTION_DDOT></tleParameters></data></segment></body></omm>
<omm id="CCSDS_OMM_VERS" version="2.0">
<header><CREATION_DATE/><ORIGINATOR/></header><body><segment><metadata><OBJECT_NAME>ORBCOMM FM39</OBJECT_NAME><OBJECT_ID>2008-031D</OBJECT_ID><CENTER_NAME>EARTH</CENTER_NAME><REF_FRAME>TEME</REF_FRAME><TIME_SYSTEM>UTC</TIME_SYSTEM><MEAN_ELEMENT_THEORY>SGP4</MEAN_ELEMENT_THEORY></metadata><data><meanElements><EPOCH>2024-10-05T17:57:39.812544</EPOCH><MEAN_MOTION>14.77433222</MEAN_MOTION><ECCENTRICITY>.0006779</ECCENTRICITY><INCLINATION>48.4386</INCLINATION><RA_OF_ASC_NODE>122.6195</RA_OF_ASC_NODE><ARG_OF_PERICENTER>339.7369</ARG_OF_PERICENTER><MEAN_ANOMALY>20.3275</MEAN_ANOMALY></meanElements><tleParameters><EPHEMERIS_TYPE>0</EPHEMERIS_TYPE><CLASSIFICATION_TYPE>U</CLASSIFICATION_TYPE><NORAD_CAT_ID>33063</NORAD_CAT_ID><ELEMENT_SET_NO>999</ELEMENT_SET_NO><REV_AT_EPOCH>87614</REV_AT_EPOCH><BSTAR>.12364E-2</BSTAR><MEAN_MOTION_DOT>.8704E-4</MEAN_MOTION_DOT><MEAN_MOTION_DDOT>0</MEAN_MOTION_DDOT></tleParameters></data></segment></body></omm>

</ndm>
