ORBCOMM FM33            
1 25983U 99065D   24279.85713012  .00007081  00000+0  23386-2 0  9996
2 25983  45.0265 126.9385 0008614 217.3241 142.7010 14.38513864299428
ORBCOMM FM38            
1 33060U 08031A   24279.74366383  .00011211  00000+0  15297-2 0  9999
2 33060  48.4392  85.9195 0004562  19.5603 340.5486 14.78917929877056
ORBCOMM FM41            
1 33061U 08031B   24279.84431025  .00009387  00000+0  12950-2 0  9991
2 33061  48.4424  92.4217 0003873   2.2819 140.9081 14.78612917876560
ORBCOMM FM29            
1 33062U 08031C   24279.81317017  .00010057  00000+0  13857-2 0  9996
2 33062  48.4375 100.5926 0005681   4.7596   9.1145 14.78595526876475
ORBCOMM FM39            
1 33063U 08031D   24279.74837746  .00008704  00000+0  12364-2 0  9993
2 33063  48.4386 122.6195 0006779 339.7369  20.3275 14.77433222876145
